[{"OBJECT_NAME":"TIANPING-3A 02","OBJECT_ID":"2025-068A","EPOCH":"2026-03-09T20:54:34.712640","MEAN_MOTION":14.85842181,"ECCENTRICITY":0.02320093,"INCLINATION":43.0011,"RA_OF_ASC_NODE":213.5906,"ARG_OF_PERICENTER":358.6421,"MEAN_ANOMALY":1.3764,"EPHEMERIS_TYPE":0,"CLASSIFICATION_TYPE":"U","NORAD_CAT_ID":63432,"ELEMENT_SET_NO":999,"REV_AT_EPOCH":5060,"BSTAR":0.00038259976,"MEAN_MOTION_DOT":5.293e-5,"MEAN_MOTION_DDOT":0},{"OBJECT_NAME":"NOAA 17 DEB","OBJECT_ID":"2002-032BD","EPOCH":"2026-03-09T10:29:19.900032","MEAN_MOTION":14.53791931,"ECCENTRICITY":0.00275292,"INCLINATION":98.8341,"RA_OF_ASC_NODE":71.7534,"ARG_OF_PERICENTER":285.2505,"MEAN_ANOMALY":74.5647,"EPHEMERIS_TYPE":0,"CLASSIFICATION_TYPE":"U","NORAD_CAT_ID":48720,"ELEMENT_SET_NO":999,"REV_AT_EPOCH":26047,"BSTAR":0.0023456748,"MEAN_MOTION_DOT":9.855e-5,"MEAN_MOTION_DDOT":0}]
